GLOBALSTAR M023         
1 25621U 99004A   25051.96989730 -.00000075  00000+0  15918-3 0  9991
2 25621  52.0114  47.3248 0009824 229.9518 155.6871 12.62495554201052
GLOBALSTAR M040         
1 25622U 99004B   25051.97878733 -.00000036  00000+0  38012-3 0  9990
2 25622  51.9922  51.2785 0001042 131.2225 253.8330 12.62002468200588
GLOBALSTAR M036         
1 25623U 99004C   25051.61523108 -.00000123  00000+0 -59456-3 0  9998
2 25623  51.9954 187.5782 0011379 186.0546 187.1572 11.86591558165149
GLOBALSTAR M038         
1 25624U 99004D   25051.87710184 -.00000072  00000+0  19079-3 0  9998
2 25624  51.9981  46.5289 0001922 165.0892 220.4068 12.32520809187991
GLOBALSTAR M022         
1 25649U 99012A   25051.97352733 -.00000049  00000+0  45407-3 0  9995
2 25649  52.0013 246.8251 0001689 318.1328 194.8469 12.02496292162396
GLOBALSTAR M046         
1 25651U 99012C   25051.65253375  .00000053  00000+0  15632-2 0  9995
2 25651  52.0033 202.0827 0002493  44.0905  42.7659 12.09407622169568
GLOBALSTAR M037         
1 25652U 99012D   25051.88529336 -.00000056  00000+0  26568-3 0  9999
2 25652  51.9994 178.2443 0001043 289.4059 193.1889 12.62436932196589
